<osmChange generator="Pietervdvn's little OSM bot" version="0.6"><create /><modify><way id="293687165" user="M!dgard" uid="763799" visible="true" version="3" changeset="62549473" timestamp="2018-09-13T12:00:28Z"><nd ref="2972810363" /><nd ref="5113769680" /><nd ref="5113769679" /><nd ref="5113769684" /><nd ref="5113769685" /><nd ref="5113769686" /><nd ref="5113770006" /><nd ref="5113770007" /><nd ref="5113770009" /><nd ref="5113770010" /><nd ref="5113770012" /><nd ref="5113770095" /><nd ref="5113770096" /><nd ref="5113770013" /><nd ref="5113770097" /><nd ref="5113770098" /><nd ref="2972810368" /><nd ref="2972810359" /><nd ref="2972810355" /><nd ref="5113770093" /><nd ref="2972810354" /><nd ref="2972810358" /><nd ref="2972810363" /><tag k="addr:housenumber" v="18" /><tag k="addr:street" v="Koolkerkse steenweg" /><tag k="building" v="house" /><tag k="addr:flats" v="101" /><tag k="source:geometry:date" v="2011-05-10" /><tag k="source:geometry:ref" v="Gbg/3134141" /></way><way id="293687170" user="M!dgard" uid="763799" visible="true" version="3" changeset="62549473" timestamp="2018-09-13T12:00:28Z"><nd ref="2972810375" /><nd ref="2972810382" /><nd ref="2972810376" /><nd ref="5113769687" /><nd ref="2972810370" /><nd ref="2972810366" /><nd ref="2972810372" /><nd ref="5113770103" /><nd ref="5113769688" /><nd ref="5113770104" /><nd ref="2972810371" /><nd ref="2972810369" /><nd ref="2972810375" /><tag k="addr:housenumber" v="22" /><tag k="addr:street" v="Koolkerkse steenweg" /><tag k="building" v="house" /><tag k="source:geometry:date" v="2011-05-10" /><tag k="source:geometry:ref" v="Gbg/3134143" /></way><way id="293687172" user="M!dgard" uid="763799" visible="true" version="3" changeset="62549473" timestamp="2018-09-13T12:00:28Z"><nd ref="2972810382" /><nd ref="2972810387" /><nd ref="2972810380" /><nd ref="2972810374" /><nd ref="2972810373" /><nd ref="5113769690" /><nd ref="2972810378" /><nd ref="2972810376" /><nd ref="2972810382" /><tag k="addr:housenumber" v="24" /><tag k="addr:street" v="Koolkerkse steenweg" /><tag k="building" v="house" /><tag k="source:geometry:date" v="2011-05-10" /><tag k="source:geometry:ref" v="Gbg/3134144" /></way><way id="525714517" user="catweazle67" uid="1976209" visible="true" version="1" changeset="52156715" timestamp="2017-09-18T20:40:15Z"><nd ref="5113770087" /><nd ref="5113770002" /><nd ref="5113770085" /><nd ref="5113770089" /><nd ref="5113770087" /><tag k="building" v="yes" /><tag k="source:geometry:date" v="2015-07-09" /><tag k="source:geometry:ref" v="Gbg/3135250" /></way><way id="293687174" user="M!dgard" uid="763799" visible="true" version="3" changeset="62549473" timestamp="2018-09-13T12:00:28Z"><nd ref="2972810387" /><nd ref="2972810392" /><nd ref="2972810386" /><nd ref="2972810385" /><nd ref="5113769689" /><nd ref="2972810380" /><nd ref="2972810387" /><tag k="addr:housenumber" v="26" /><tag k="addr:street" v="Koolkerkse steenweg" /><tag k="building" v="house" /><tag k="source:geometry:date" v="2017-06-16" /><tag k="source:geometry:ref" v="Gbg/5975183" /></way><way id="293687176" user="M!dgard" uid="763799" visible="true" version="3" changeset="62549473" timestamp="2018-09-13T12:00:28Z"><nd ref="2972810392" /><nd ref="2972810394" /><nd ref="2972810393" /><nd ref="2972810379" /><nd ref="5113769691" /><nd ref="5113769692" /><nd ref="2972810377" /><nd ref="2972810390" /><nd ref="2972810386" /><nd ref="2972810392" /><tag k="addr:housenumber" v="28" /><tag k="addr:street" v="Koolkerkse steenweg" /><tag k="building" v="house" /><tag k="source:geometry:date" v="2011-05-10" /><tag k="source:geometry:ref" v="Gbg/3134146" /></way><way id="293687178" user="M!dgard" uid="763799" visible="true" version="3" changeset="62549473" timestamp="2018-09-13T12:00:28Z"><nd ref="2972810394" /><nd ref="2972810398" /><nd ref="2972810395" /><nd ref="2972810393" /><nd ref="2972810394" /><tag k="addr:housenumber" v="30" /><tag k="addr:street" v="Koolkerkse steenweg" /><tag k="building" v="house" /><tag k="addr:flats" v="3" /><tag k="source:geometry:date" v="2011-05-10" /><tag k="source:geometry:ref" v="Gbg/3134147" /></way><way id="293687180" user="M!dgard" uid="763799" visible="true" version="4" changeset="62549473" timestamp="2018-09-13T12:00:28Z"><nd ref="2972810398" /><nd ref="2972810411" /><nd ref="2972810401" /><nd ref="2972810389" /><nd ref="5113769695" /><nd ref="2972810384" /><nd ref="2972810395" /><nd ref="2972810398" /><tag k="addr:housenumber" v="32" /><tag k="addr:street" v="Koolkerkse steenweg" /><tag k="building" v="house" /><tag k="craft" v="brewery" /><tag k="name" v="Fort Lapin" /><tag k="source:geometry:date" v="2011-05-10" /><tag k="source:geometry:ref" v="Gbg/3134148" /></way><way id="525714507" user="catweazle67" uid="1976209" visible="true" version="1" changeset="52156715" timestamp="2017-09-18T20:40:15Z"><nd ref="5113770088" /><nd ref="5113770003" /><nd ref="5113769999" /><nd ref="5113770086" /><nd ref="5113770088" /><tag k="building" v="yes" /><tag k="source:geometry:date" v="2011-05-10" /><tag k="source:geometry:ref" v="Gbg/3135253" /></way><way id="525714551" user="catweazle67" uid="1976209" visible="true" version="1" changeset="52156715" timestamp="2017-09-18T20:40:17Z"><nd ref="5113770094" /><nd ref="5113769678" /><nd ref="5113769677" /><nd ref="5113770011" /><nd ref="5113770101" /><nd ref="5113770008" /><nd ref="5113769683" /><nd ref="5113769682" /><nd ref="5113769681" /><nd ref="5113770094" /><tag k="building" v="yes" /><tag k="source:geometry:date" v="2011-05-10" /><tag k="source:geometry:ref" v="Gbg/3135028" /></way><way id="525714516" user="catweazle67" uid="1976209" visible="true" version="1" changeset="52156715" timestamp="2017-09-18T20:40:15Z"><nd ref="5113770101" /><nd ref="5113770102" /><nd ref="5113770014" /><nd ref="5113770008" /><nd ref="5113770101" /><tag k="building" v="shed" /><tag k="source:geometry:date" v="2011-05-10" /><tag k="source:geometry:ref" v="Gbg/3135029" /></way></modify><delete /></osmChange>